ONEWEB-0456             
1 51646U 22012AA  25143.84373557  .00000098  00000+0  24547-3 0  9997
2 51646  87.8793 113.8548 0001917  89.4983 270.6364 13.10369925158354
ONEWEB-0457             
1 51647U 22012AB  25143.66778858  .00000599  00000+0  16793-2 0  9990
2 51647  87.8811 113.9425 0002373  78.5096 281.6297 13.10373596158336
ONEWEB-0458             
1 51648U 22012AC  25143.84207137  .00000255  00000+0  69470-3 0  9998
2 51648  87.8789 113.8925 0001956  80.2761 279.8587 13.10368889158318
ONEWEB-0461             
1 51649U 22012AD  25143.82842175  .00000087  00000+0  19132-3 0  9997
2 51649  87.9060  83.3729 0002135  79.4983 280.6389 13.17649241162610
ONEWEB-0463             
1 51650U 22012AE  25143.80985590 -.00000034  00000+0 -11989-3 0  9992
2 51650  87.9063  83.4385 0002057  79.0737 281.0626 13.17648311162391
ONEWEB-0464             
1 51651U 22012AF  25143.83875731  .00000387  00000+0  10715-2 0  9995
2 51651  87.8806 113.9170 0001810  91.2721 268.8613 13.10369694158337
ONEWEB-0468             
1 51652U 22012AG  25143.84538487  .00000050  00000+0  10778-3 0  9998
2 51652  87.8806 113.9075 0002010  84.4528 275.6829 13.10368449158314
ONEWEB-0473             
1 51653U 22012AH  25143.90682079  .00000680  00000+0  19122-2 0  9993
2 51653  87.8808 113.8986 0001941  82.3308 277.8040 13.10372300158323
ONEWEB-0474             
1 51654U 22012AJ  25143.82216308  .00000608  00000+0  17061-2 0  9993
2 51654  87.8803 113.8810 0001795  84.1278 276.0054 13.10373857158300
ONEWEB-0475             
1 51655U 22012AK  25143.82167456  .00000037  00000+0  62475-4 0  9990
2 51655  87.9064  83.4158 0001360  66.2636 293.8638 13.17650361162412
ONEWEB-0490             
1 54113U 22138A   25143.89117551  .00000037  00000+0  61307-4 0  9992
2 54113  87.9238  22.3413 0001657  85.7192 274.4130 13.19726759125480
ONEWEB-0492             
1 54114U 22138B   25143.68898231  .00000101  00000+0  22089-3 0  9996
2 54114  87.9244  22.4028 0001837  88.8875 271.2468 13.19723936125464
ONEWEB-0495             
1 54115U 22138C   25143.89431302  .00000042  00000+0  72570-4 0  9997
2 54115  87.9244  22.3736 0001201  96.6253 263.5016 13.19725339125475
ONEWEB-0497             
1 54116U 22138D   25143.67951070  .00000045  00000+0  79388-4 0  9990
2 54116  87.9238  22.3895 0001738  83.4590 276.6741 13.19724929125438
ONEWEB-0499             
1 54117U 22138E   25143.88957446  .00000030  00000+0  43004-4 0  9997
2 54117  87.9243  22.3643 0001581  72.6204 287.5101 13.19724367125475
ONEWEB-0500             
1 54118U 22138F   25143.89273560  .00000014  00000+0  37112-5 0  9993
2 54118  87.9240  22.3493 0001856  83.1907 276.9437 13.19724324125486
ONEWEB-0501             
1 54119U 22138G   25143.69531095  .00000113  00000+0  24897-3 0  9996
2 54119  87.9239  22.3823 0001417  87.3784 272.7511 13.19724154125437
ONEWEB-0502             
1 54120U 22138H   25143.68108660  .00000026  00000+0  31689-4 0  9996
2 54120  87.9237  22.3695 0001543  79.8438 280.2869 13.19724021125451
ONEWEB-0503             
1 54121U 22138J   25143.89747336  .00000049  00000+0  90094-4 0  9999
2 54121  87.9236  22.3317 0001833  71.7495 288.3837 13.19724271125471
ONEWEB-0504             
1 54122U 22138K   25143.65739471  .00000023  00000+0  24664-4 0  9997
2 54122  87.9239  22.3933 0001539  77.5425 282.5879 13.19724430125456
ONEWEB-0505             
1 54123U 22138L   25143.65423893  .00000026  00000+0  33005-4 0  9998
2 54123  87.9238  22.3841 0001217  84.0445 276.0827 13.19725567125433
ONEWEB-0506             
1 54124U 22138M   25143.93223454 -.00000030  00000+0 -10788-3 0  9990
2 54124  87.9237  22.3259 0001621  81.7168 278.4149 13.19723923125461
ONEWEB-0507             
1 54125U 22138N   25143.95276138  .00000031  00000+0  44751-4 0  9997
2 54125  87.9245  22.3718 0001642  86.4523 273.6798 13.19723989125516
ONEWEB-0508             
1 54126U 22138P   25143.94961086 -.00000068  00000+0 -20218-3 0  9993
2 54126  87.9244  22.3563 0001505  92.5430 267.5875 13.19724747125495
ONEWEB-0509             
1 54127U 22138Q   25143.69687928  .00000031  00000+0  45351-4 0  9990
2 54127  87.9236  22.3705 0001683  82.1980 277.9344 13.19724166125432
ONEWEB-0510             
1 54128U 22138R   25143.81733360  .00000123  00000+0  27138-3 0  9991
2 54128  87.9271 351.9779 0002381  80.2426 279.8976 13.20770931127880
ONEWEB-0511             
1 54129U 22138S   25143.92117358  .00000043  00000+0  74387-4 0  9997
2 54129  87.9238  22.3314 0001763  71.9432 288.1892 13.19723608125497
ONEWEB-0512             
1 54130U 22138T   25143.91327197  .00000060  00000+0  11866-3 0  9993
2 54130  87.9245  22.3755 0001388  80.1203 280.0086 13.19724264125469
ONEWEB-0513             
1 54131U 22138U   25143.93060578  .00000041  00000+0  68641-4 0  9996
2 54131  87.9242  22.3447 0001347  77.1524 282.9759 13.20261018125353
ONEWEB-0514             
1 54132U 22138V   25143.92906781  .00000069  00000+0  14049-3 0  9993
2 54132  87.9239  22.3413 0001840  79.6466 280.4874 13.19724189125489
ONEWEB-0515             
1 54133U 22138W   25143.80472278  .00000103  00000+0  22188-3 0  9992
2 54133  87.9270 351.9567 0002681  96.5952 263.5486 13.20771278127901
ONEWEB-0516             
1 54134U 22138X   25143.67634800  .00000066  00000+0  13315-3 0  9999
2 54134  87.9246  22.4255 0001765  85.1965 274.9369 13.19724781125458
ONEWEB-0517             
1 54135U 22138Y   25143.65581567 -.00000003  00000+0 -40071-4 0  9992
2 54135  87.9238  22.3909 0001838  71.0641 289.0691 13.19724507125452
ONEWEB-0518             
1 54136U 22138Z   25143.67476392 -.00000191  00000+0 -50957-3 0  9995
2 54136  87.9245  22.4216 0001651  83.1428 276.9893 13.19725411125457
ONEWEB-0519             
1 54137U 22138AA  25143.70003728  .00000091  00000+0  19558-3 0  9998
2 54137  87.9239  22.3748 0001780  74.0522 286.0806 13.19724248125461
ONEWEB-0520             
1 54138U 22138AB  25143.88640220 -.00001245  00000+0 -31417-2 0  9993
2 54138  87.9237  22.3417 0001547  86.3713 273.7596 13.19730955125474
ONEWEB-0521             
1 54139U 22138AC  25143.91958697  .00000150  00000+0  34197-3 0  9999
2 54139  87.9236  22.3227 0001967  74.7125 285.4225 13.19723810125423
ONEWEB-0522             
1 54140U 22138AD  25143.67161455  .00000012  00000+0 -19936-5 0  9996
2 54140  87.9236  22.3732 0001778  84.5580 275.5755 13.19725193125435
ONEWEB-0523             
1 54141U 22138AE  25143.86784408  .00000008  00000+0 -13415-4 0  9997
2 54141  87.9272 351.9745 0002678  82.0120 278.1317 13.20770097127917
ONEWEB-0524             
1 54142U 22138AF  25143.62952310  .00000055  00000+0  10284-3 0  9992
2 54142  87.9271 352.0237 0002527 103.1652 256.9764 13.20770123127889
ONEWEB-0525             
1 54143U 22138AG  25143.91801698  .00000062  00000+0  12286-3 0  9999
2 54143  87.9239  22.3426 0001535  86.3596 273.7713 13.19724724125487
ONEWEB-0526             
1 54144U 22138AH  25143.95117984 -.00000053  00000+0 -16377-3 0  9999
2 54144  87.9238  22.3251 0001737  83.8278 276.3052 13.19723869125468
ONEWEB-0529             
1 54145U 22138AJ  25143.95434198  .00000012  00000+0 -12361-5 0  9994
2 54145  87.9244  22.3646 0001614  86.5955 273.5362 13.19724009125482
ONEWEB-0531             
1 54146U 22138AK  25143.84259261  .00000092  00000+0  19359-3 0  9998
2 54146  87.9272 351.9753 0002724  87.9406 272.2040 13.20770253127916
ONEWEB-0535             
1 54147U 22138AL  25143.91169347  .00000116  00000+0  25692-3 0  9996
2 54147  87.9236  22.3291 0002097  81.0262 279.1108 13.19724298125499
ONEWEB-0536             
1 54148U 22138AM  25143.82997394  .00000114  00000+0  24760-3 0  9991
2 54148  87.9271 352.0237 0002860  92.4505 267.6956 13.20770610127908
ONEWEB-0527             
1 54642U 22166A   25143.86478277 -.00000002  00000+0 -35870-4 0  9992
2 54642  87.9245 321.6456 0001875  95.0845 265.0503 13.21826933120100
ONEWEB-0528             
1 54643U 22166B   25143.71969889  .00000041  00000+0  67133-4 0  9999
2 54643  87.9249 321.6730 0001767  95.2698 264.8637 13.21826459120094
ONEWEB-0539             
1 54644U 22166C   25143.75596724  .00000045  00000+0  78232-4 0  9994
2 54644  87.9228 321.6506 0001689  86.5716 273.5611 13.21825178120096
ONEWEB-0540             
1 54645U 22166D   25143.76241566  .00000107  00000+0  22785-3 0  9997
2 54645  87.9243 321.6751 0001687  85.6551 274.4775 13.21826364120089
ONEWEB-0542             
1 54646U 22166E   25143.53832693  .00000081  00000+0  16396-3 0  9992
2 54646  87.9228 321.6920 0001801  79.1874 280.9463 13.21825151120523
ONEWEB-0545             
1 54647U 22166F   25143.73230515  .00000059  00000+0  11255-3 0  9994
2 54647  87.9238 321.6625 0001539  73.9453 286.1850 13.21826666120058
ONEWEB-0580             
1 54648U 22166G   25143.78119687  .00000071  00000+0  13999-3 0  9997
2 54648  87.9247 321.6467 0001836  79.4794 280.6547 13.21825331120108
ONEWEB-0582             
1 54649U 22166H   25143.74807857  .00000087  00000+0  17823-3 0  9994
2 54649  87.9226 321.6625 0001861  74.9128 285.2211 13.21824240120074
ONEWEB-0583             
1 54650U 22166J   25143.53202965  .00000197  00000+0  44518-3 0  9995
2 54650  87.9242 321.7179 0001734  88.1879 271.9453 13.21825621120050
ONEWEB-0584             
1 54651U 22166K   25143.77961391  .00000032  00000+0  46269-4 0  9991
2 54651  87.9247 321.6514 0001926  78.6167 281.5183 13.21825524120076
ONEWEB-0585             
1 54652U 22166L   25143.72915517  .00000051  00000+0  91447-4 0  9995
2 54652  87.9231 321.6518 0001867  95.4288 264.7059 13.21824573120077
ONEWEB-0586             
1 54653U 22166M   25143.74177111  .00000095  00000+0  19892-3 0  9999
2 54653  87.9243 321.6690 0001765  85.3842 274.7493 13.21825369120070
ONEWEB-0587             
1 54654U 22166N   25143.75125412  .00000026  00000+0  31992-4 0  9998
2 54654  87.9242 321.6165 0001882  97.3810 262.7537 13.21829245120236
